CHINASAT 12 (ZX 12)     
1 39017U 12067A   20198.14229484 -.00000197  00000-0  00000+0 0  9997
2 39017   0.0233  61.5298 0003137  52.3476 319.2781  1.00268513 28032
EUTELSAT 70B            
1 39020U 12069A   20197.83452215 -.00000035  00000-0  00000-0 0  9990
2 39020   0.0716 337.8244 0005771 179.2588 147.9831  1.00270591 27828
YAMAL 402               
1 39022U 12070A   20197.87896637  .00000094  00000-0  00000-0 0  9992
2 39022   0.0143  91.9271 0002640  32.5142 181.0566  1.00273147 27713
SKYNET 5D               
1 39034U 12075A   20198.13531596  .00000108  00000-0  00000+0 0  9995
2 39034   0.0743 352.0813 0003636 138.0368 265.7944  1.00275291 27849
MEXSAT 3                
1 39035U 12075B   20198.10190462 -.00000017  00000-0  00000+0 0  9996
2 39035   0.0215  45.7565 0002185  80.9117  89.6144  1.00271227 27793
TDRS 11                 
1 39070U 13004A   20197.61429247  .00000091  00000-0  00000-0 0  9991
2 39070   3.7911 332.6528 0005400  69.2897 298.8125  1.00266297 25017
AMAZONAS 3              
1 39078U 13006A   20197.46658042 -.00000274  00000-0  00000+0 0  9994
2 39078   0.0564 238.7835 0002255 282.4450 239.5062  1.00270323 27283
AZERSPACE 1             
1 39079U 13006B   20197.89563466  .00000141  00000-0  00000-0 0  9990
2 39079   0.0276 295.6411 0001634 209.3294 157.6600  1.00274709 27123
SBIRS GEO-2 (USA 241)   
1 39120U 13011A   20198.12894774  .00000132  00000-0  00000+0 0  9998
2 39120   2.1037 344.4008 0002684 123.8320 253.2061  1.00272664 26917
EUTELSAT 117 WEST A     
1 39122U 13012A   20198.10155566 -.00000004  00000-0  00000+0 0  9997
2 39122   0.0104  25.2580 0002837  97.8893  91.0159  1.00273480 26783
ANIK G1                 
1 39127U 13014A   20197.49783679 -.00000066  00000-0  00000+0 0  9995
2 39127   0.0345 280.3984 0000599 235.2703 210.0389  1.00272283 26562
CHINASAT 11 (ZX 11)     
1 39157U 13020A   20197.86172500 -.00000283  00000-0  00000-0 0  9993
2 39157   0.0186  42.9311 0001054 328.4362 331.0355  1.00272826 26219
EUTELSAT 7B             
1 39163U 13022A   20198.12615619  .00000057  00000-0  00000+0 0  9992
2 39163   0.0536 357.0347 0003226  50.6002 299.1840  1.00272587 26297
WGS F5 (USA 243)        
1 39168U 13024A   20198.11437934 -.00000275  00000-0  00000+0 0  9993
2 39168   0.0163  29.7144 0000503 185.6937  67.6792  1.00272095 26149
SES-6                   
1 39172U 13026A   20198.11673471 -.00000252  00000-0  00000+0 0  9993
2 39172   0.0406 302.3122 0001858 168.5208 185.0994  1.00271521 26035
IRNSS-1A                
1 39199U 13034A   20197.80655248  .00000071  00000-0  00000+0 0  9996
2 39199  30.9158  96.3251 0017039 184.9118 358.2677  1.00276463 25966
MUOS-2                  
1 39206U 13036A   20198.16131226  .00000076  00000-0  00000+0 0  9997
2 39206   2.6078 357.7513 0056346 176.4089   1.3442  1.00269766 25621
ALPHASAT                
1 39215U 13038A   20198.12973286  .00000143  00000-0  00000+0 0  9990
2 39215   2.4598  20.0028 0002001 118.8700 227.1266  1.00273312 25585
INSAT-3D                
1 39216U 13038B   20197.56690174 -.00000147  00000-0  00000-0 0  9996
2 39216   0.0434 274.6296 0001653 207.0964  98.2914  1.00269876 25428
WGS F6 (USA 244)        
1 39222U 13041A   20198.09789176  .00000098  00000-0  00000+0 0  9990
2 39222   0.0189  51.1774 0000365 212.0141 291.2537  1.00272703 25387
EUTELSAT 25B            
1 39233U 13044A   20198.12990734  .00000152  00000-0  00000+0 0  9994
2 39233   0.0484 353.7845 0001685 126.9644 245.9226  1.00273287 25226
GSAT-7                  
1 39234U 13044B   20198.15813497 -.00000068  00000-0  00000+0 0  9995
2 39234   0.0217 299.6349 0005679 317.7034 168.0550  1.00272426 25227
AMOS-4                  
1 39237U 13045A   20198.13775858  .00000016  00000-0  00000+0 0  9997
2 39237   0.0323 274.0863 0002512 175.5176 319.4159  1.00271221 25214
AEHF-3 (USA 246)        
1 39256U 13050A   20198.06368838 -.00000346  00000-0  00000+0 0  9999
2 39256   0.5950   1.2123 0003293  85.4021 341.7193  1.00267911 25004
ASTRA 2E                
1 39285U 13056A   20197.80521637  .00000159  00000-0  00000-0 0  9998
2 39285   0.0638  40.9784 0002088  69.3439 142.1187  1.00270204 24781
SIRIUS FM-6             
1 39360U 13058A   20198.31692949 -.00000007  00000-0  00000+0 0  9998
2 39360   0.0076 323.5406 0000701 327.0222   1.9600  1.00265670 24666
RADUGA-1M 3             
1 39375U 13062A   20197.34771652  .00000164  00000-0  10000-3 0  9998
2 39375   0.5026  98.1622 0005691 323.8052  31.8998  1.00272109 24448
SES-8                   
1 39460U 13071A   20198.28734824 -.00000261  00000-0  00000+0 0  9991
2 39460   0.0576 247.9832 0002610 218.0337  26.9973  1.00273007 24192
INMARSAT 5-F1           
1 39476U 13073A   20198.13732240  .00000037  00000-0  00000+0 0  9994
2 39476   0.0263  52.8318 0000379 169.2773 184.3576  1.00269322 24255
TKSAT-1 (TUPAC KATARI)  
1 39481U 13075A   20198.10740046 -.00000185  00000-0  00000+0 0  9997
2 39481   0.0519 252.3152 0002629 205.9450 147.6016  1.00266722 24160
EXPRESS-AM5             
1 39487U 13077A   20198.17220297 -.00000271  00000-0  00000+0 0  9999
2 39487   0.0528 229.7070 0001242 124.1032 142.6753  1.00273192 24679
GSAT-14                 
1 39498U 14001A   20198.15813497 -.00000068  00000-0  00000+0 0  9991
2 39498   0.0541 271.4566 0002208 320.3679 193.5573  1.00271846 23904
THAICOM 6               
1 39500U 14002A   20197.84771424 -.00000113  00000-0  00000-0 0  9996
2 39500   0.0521 126.5907 0004454   1.0508 190.2046  1.00273243 23771
TDRS 12                 
1 39504U 14004A   20198.26021786 -.00000256  00000-0  00000+0 0  9995
2 39504   4.6188 338.6508 0003337 145.3047 223.4082  1.00273620 23774
ABS-2                   
1 39508U 14006A   20198.15813497 -.00000077  00000-0  00000+0 0  9998
2 39508   0.0297 304.0269 0003513 165.4613 316.8062  1.00271908 23646
ATHENA-FIDUS            
1 39509U 14006B   20198.13234994  .00000163  00000-0  00000+0 0  9991
2 39509   0.0135  32.9959 0000937  87.6836 259.1905  1.00273438 23825
TURKSAT 4A              
1 39522U 14007A   20198.13322230  .00000155  00000-0  00000+0 0  9999
2 39522   0.0679 268.2636 0000688 273.0126 203.0787  1.00271356 23536
EXPRESS-AT1             
1 39612U 14010A   20197.90522626  .00000087  00000-0  00000-0 0  9993
2 39612   0.0490 225.6150 0000182  49.0828  41.3841  1.00271563 23134
EXPRESS-AT2             
1 39613U 14010B   20198.19563312 -.00000272  00000-0  00000+0 0  9999
2 39613   0.0495 222.4412 0000508  54.4735 227.8474  1.00272330 23209
AMAZONAS 4A             
1 39616U 14011A   20197.82292424 -.00000244  00000-0  00000-0 0  9995
2 39616   0.0804  76.1515 0003159  40.8751  39.3690  1.00272730 23015
ASTRA 5B                
1 39617U 14011B   20198.13112865  .00000164  00000-0  00000+0 0  9990
2 39617   0.0553  73.5544 0003334  39.5009 260.0530  1.00271152 23198
LUCH 5V                 
1 39727U 14023A   20198.14369061 -.00000259  00000-0  00000+0 0  9994
2 39727   0.4962 339.6083 0003738 137.0716 324.2420  1.00272272540840
KAZSAT-3                
1 39728U 14023B   20198.13645003  .00000068  00000-0  00000+0 0  9994
2 39728   0.0489 239.9394 0000977 250.2087 271.9002  1.00279692 22762
EUTELSAT 3B             
1 39773U 14030A   20198.12545830  .00000029  00000-0  00000+0 0  9995
2 39773   0.0602   9.0794 0004935 137.8403 195.7822  1.00269686 22539
USA 253                 
1 40099U 14043A   20192.50486111 -.00000301  00000-0  00000+0 0  9998
2 40099   0.4192 100.4006 0000641  14.8019  90.3623  1.00435862  6328
USA 254                 
1 40100U 14043B   20184.55562025  .00000025  00000-0  00000+0 0  9998
2 40100   0.6047  96.9296 0005288   4.9527 199.8162  1.00124126  5935
ASIASAT 8               
1 40107U 14046A   20198.12406253 -.00000024  00000-0  00000+0 0  9996
2 40107   0.0646 266.4675 0002088 198.5307 230.1863  1.00271634 21816
ASIASAT 6               
1 40141U 14052A   20198.31438205 -.00000353  00000-0  00000+0 0  9999
2 40141   0.0637 264.1237 0000608 249.8638  13.6957  1.00270488 21483
OPTUS 10                
1 40146U 14054A   20198.26924219 -.00000138  00000-0  00000+0 0  9996
2 40146   0.0767  12.4742 0003789 120.6192  54.3980  1.00271303 21442
MEASAT-3B               
1 40147U 14054B   20198.14307997 -.00000232  00000-0  00000+0 0  9997
2 40147   0.0382 329.2149 0001238 135.5956 332.5936  1.00271049 21490
LUCH (OLYMP)            
1 40258U 14058A   20197.87240800 -.00000003  00000-0  00000-0 0  9999
2 40258   0.0240  49.7148 0001197  58.8817 138.5465  1.00270367 19317
HIMAWARI-8              
1 40267U 14060A   20198.11716056 -.00000267  00000-0  00000+0 0  9992
2 40267   0.0200  58.2009 0000812 121.6809 297.3663  1.00268643 21183
IRNSS-1C                
1 40269U 14061A   20198.06954010 -.00000152  00000-0  00000+0 0  9996
2 40269   1.9144 174.0036 0019647  12.3301 216.1281  1.00271884 21140
INTELSAT 30 (IS-30)     
1 40271U 14062A   20196.02417098 -.00000138  00000-0  00000+0 0  9998
2 40271   0.0105 332.5218 0013866  55.3868 178.1031  1.00222196 21068
ARSAT 1                 
1 40272U 14062B   20198.11045373 -.00000250  00000-0  00000+0 0  9999
2 40272   0.0613 262.1955 0001373 232.6400 127.5051  1.00268589 21203
EXPRESS-AM6             
1 40277U 14064A   20197.80674448  .00000106  00000-0  00000-0 0  9992
2 40277   0.0582 241.8177 0000747 294.7392 100.9783  1.00273210 19892
GSAT-16                 
1 40332U 14078A   20198.13575214  .00000094  00000-0  00000+0 0  9992
2 40332   0.0637 271.3833 0007277 182.7814 304.1914  1.00272256 20583
DIRECTV 14              
1 40333U 14078B   20198.10504510 -.00000116  00000-0  00000+0 0  9997
2 40333   0.0235 130.7771 0000361 204.5973 257.5959  1.00270988 20561
YAMAL 401               
1 40345U 14082A   20197.84215995 -.00000219  00000-0  00000-0 0  9996
2 40345   0.0048  31.9525 0000438 169.4389 125.8501  1.00270326 20724
ASTRA 2G                
1 40364U 14089A   20197.80520791  .00000158  00000-0  00000-0 0  9994
2 40364   0.0220  10.4646 0004176  67.6774 174.0009  1.00272445 20287
